GLOBALSTAR M024         
1 25883U 99043A   24290.81169715 -.00000126  00000+0 -21645-2 0  9996
2 25883  51.9998 209.7613 0002163  52.4284 341.6242 11.10160354 87834
GLOBALSTAR M027         
1 25884U 99043B   24290.92688171 -.00000082  00000+0 -69491-3 0  9994
2 25884  52.0208 280.5926 0021363 319.4344  40.4857 11.04370069114365
GLOBALSTAR M054         
1 25885U 99043C   24290.92886056 -.00000062  00000+0  23921-3 0  9992
2 25885  52.0125  88.7046 0006815 120.5186  44.0201 11.39205363 91320
GLOBALSTAR M053         
1 25886U 99043D   24290.77897831 -.00000059  00000+0  26656-3 0  9993
2 25886  52.0020  22.6555 0003456  38.8278 137.3002 11.27659302 91988
GLOBALSTAR M058         
1 25907U 99049A   24290.45221505 -.00000025  00000+0  79526-3 0  9994
2 25907  51.9965  40.0033 0002436 151.9349 208.1617 11.93185694512445
GLOBALSTAR M050         
1 25908U 99049B   24290.41723062 -.00000089  00000+0 -12026-4 0  9990
2 25908  51.9995  65.9833 0008314 264.1541 129.5066 12.07441102118749
GLOBALSTAR M033         
1 25909U 99049C   24290.42340721  .00000013  00000+0  10033-2 0  9998
2 25909  51.9920 314.6437 0013012 122.6813 237.5291 12.20287090505988
GLOBALSTAR M055         
1 25910U 99049D   24290.59796814 -.00000050  00000+0  37777-3 0  9993
2 25910  52.0041 336.7543 0006932 348.4677  11.6015 12.29411440138320
